STARLINK-2674
1 18354C 21038B   21326.16850887 -.00009313  00000-0 -62387-3 0  3266
2 18354  53.0533 202.9806 0002009  68.1474 350.9868 15.06415672    10
